[{"OBJECT_NAME":"KUIPER-00018","OBJECT_ID":"2025-088K","EPOCH":"2026-03-09T09:14:13.950816","MEAN_MOTION":14.79966884,"ECCENTRICITY":0.00010275,"INCLINATION":51.9017,"RA_OF_ASC_NODE":101.9157,"ARG_OF_PERICENTER":120.7858,"MEAN_ANOMALY":239.3206,"EPHEMERIS_TYPE":0,"CLASSIFICATION_TYPE":"U","NORAD_CAT_ID":63733,"ELEMENT_SET_NO":999,"REV_AT_EPOCH":4744,"BSTAR":0.001710843,"MEAN_MOTION_DOT":0.00012856,"MEAN_MOTION_DDOT":0},{"OBJECT_NAME":"CZ-6A DEB","OBJECT_ID":"2024-140VN","EPOCH":"2026-03-09T01:13:35.672448","MEAN_MOTION":14.64166989,"ECCENTRICITY":0.01342839,"INCLINATION":89.0628,"RA_OF_ASC_NODE":286.246,"ARG_OF_PERICENTER":226.53,"MEAN_ANOMALY":132.4687,"EPHEMERIS_TYPE":0,"CLASSIFICATION_TYPE":"U","NORAD_CAT_ID":61349,"ELEMENT_SET_NO":999,"REV_AT_EPOCH":8059,"BSTAR":0.0010716801,"MEAN_MOTION_DOT":6.448e-5,"MEAN_MOTION_DDOT":0}]
